STARLINK-1711_new
1 16374C 20062BC  21326.14813506  .00001244  00000-0  83312-4 0  3262
2 16374  53.0524 148.0815 0006238  70.2194 320.7980 15.06387476    11
STARLINK-1711_old
1 26374C 20062BC  21325.15282054  .00001637  00000-0  10965-3 0  3258
2 26374  53.0524 152.5496 0006256  67.4664 322.9808 15.06384591    14
